ONEWEB-0196             
1 48218U 21031J   24153.49111317  .00000239  00000+0  61108-3 0  9994
2 48218  87.8971  78.0662 0002099  79.2419 280.8947 13.14502942150269
ONEWEB-0183             
1 48219U 21031K   24153.54185164 -.00002613  00000+0 -70822-2 0  9994
2 48219  87.8967  78.0724 0002057  78.9478 281.1883 13.14514964150360
ONEWEB-0185             
1 48220U 21031L   24153.49190836  .00000035  00000+0  60661-4 0  9998
2 48220  87.8970  78.0550 0001912  73.4383 286.6957 13.14501324150286
ONEWEB-0187             
1 48221U 21031M   24153.53790020  .00000133  00000+0  32428-3 0  9993
2 48221  87.8968  78.0780 0001942  75.2242 284.9103 13.14501747150302
ONEWEB-0192             
1 48222U 21031N   24153.51805913 -.00000173  00000+0 -50155-3 0  9993
2 48222  87.8969  78.0790 0002124  77.3154 282.8213 13.14500564150218
ONEWEB-0219             
1 48223U 21031P   24153.49744711 -.00000059  00000+0 -19340-3 0  9993
2 48223  87.8969  78.0576 0002004  73.2290 286.9059 13.14500902150415
ONEWEB-0202             
1 48224U 21031Q   24153.55454962  .00000175  00000+0  43670-3 0  9997
2 48224  87.8968  78.0657 0002796  69.1468 290.9961 13.14501443150401
ONEWEB-0204             
1 48225U 21031R   24153.51251743 -.00000182  00000+0 -52523-3 0  9993
2 48225  87.8969  78.0860 0001608  82.2200 277.9113 13.14501746150297
